STARLINK-5686           
1 55450U 23015B   25285.41218435  .00000285  00000+0  36167-4 0  9991
2 55450  43.0056  52.1684 0001424 265.5164  94.5515 15.02538292149386
STARLINK-5656           
1 55451U 23015C   25286.07030162  .00002415  00000+0  19375-3 0  9992
2 55451  43.0052  48.5069 0001343 256.9358 103.1334 15.02544139148548
STARLINK-5683           
1 55452U 23015D   25286.06586309  .00000674  00000+0  64961-4 0  9998
2 55452  43.0026  48.4709 0000809 270.4506  89.6243 15.02535316148546
STARLINK-5684           
1 55453U 23015E   25286.06253567  .00000702  00000+0  67039-4 0  9997
2 55453  43.0059  48.4480 0001276 271.9438  88.1258 15.02537351148549
STARLINK-5636           
1 55454U 23015F   25285.65700470  .00000510  00000+0  52832-4 0  9994
2 55454  43.0031  50.5545 0001245 274.9675  85.1026 15.02537016148489
STARLINK-5680           
1 55455U 23015G   25286.06919181  .00000411  00000+0  45466-4 0  9997
2 55455  43.0044  48.4974 0001440 270.2862  89.7815 15.02541099148549
STARLINK-5058           
1 55456U 23015H   25285.72459989  .00000094  00000+0  22004-4 0  9995
2 55456  43.0077  50.2131 0001136 271.4045  88.6667 15.02540201148491
STARLINK-5682           
1 55457U 23015J   25286.05920157  .00000712  00000+0  67801-4 0  9994
2 55457  43.0052  48.4232 0001340 273.0172  87.0517 15.02539278148547
STARLINK-5020           
1 55458U 23015K   25286.04588694  .00003019  00000+0  23843-3 0  9990
2 55458  43.0045  48.3200 0001388 276.4788  83.5896 15.02536665148544
STARLINK-5669           
1 55459U 23015L   25286.05032514  .00003366  00000+0  26402-3 0  9996
2 55459  43.0047  48.3547 0001298 261.2061  98.8635 15.02553020148541
STARLINK-5678           
1 55460U 23015M   25286.04698978  .00002631  00000+0  20980-3 0  9998
2 55460  43.0049  48.3302 0001165 272.1441  87.9268 15.02526525148541
STARLINK-5646           
1 55461U 23015N   25286.05366119  .00007344  00000+0  55854-3 0  9993
2 55461  43.0060  48.3807 0001029 273.1971  86.8754 15.02509098148547
STARLINK-5673           
1 55462U 23015P   25286.03591145 -.00000250  00000+0 -34300-5 0  9997
2 55462  43.0037  48.2446 0001475 268.3896  91.6777 15.02524134148544
STARLINK-5677           
1 55463U 23015Q   25286.04144558  .00000565  00000+0  56927-4 0  9996
2 55463  43.0030  48.2867 0001114 271.9981  88.0734 15.02535268148543
STARLINK-5676           
1 55464U 23015R   25286.02923477  .00000905  00000+0  82021-4 0  9992
2 55464  43.0052  48.1953 0001374 268.1483  91.9202 15.02539196148543
STARLINK-5674           
1 55465U 23015S   25286.03256510  .00000959  00000+0  86081-4 0  9990
2 55465  43.0046  48.2209 0001275 265.9894  94.0802 15.02540258148544
