[{"OBJECT_NAME":"STARLINK-5686","OBJECT_ID":"2023-015B","EPOCH":"2025-10-12T09:53:32.727840","MEAN_MOTION":15.02538292,"ECCENTRICITY":0.00014243,"INCLINATION":43.0056,"RA_OF_ASC_NODE":52.1684,"ARG_OF_PERICENTER":265.5164,"MEAN_ANOMALY":94.5515,"EPHEMERIS_TYPE":0,"CLASSIFICATION_TYPE":"U","NORAD_CAT_ID":55450,"ELEMENT_SET_NO":999,"REV_AT_EPOCH":14938,"BSTAR":3.6166608e-5,"MEAN_MOTION_DOT":2.85e-6,"MEAN_MOTION_DDOT":0},{"OBJECT_NAME":"STARLINK-5656","OBJECT_ID":"2023-015C","EPOCH":"2025-10-13T01:41:14.059968","MEAN_MOTION":15.02544139,"ECCENTRICITY":0.00013434,"INCLINATION":43.0052,"RA_OF_ASC_NODE":48.5069,"ARG_OF_PERICENTER":256.9358,"MEAN_ANOMALY":103.1334,"EPHEMERIS_TYPE":0,"CLASSIFICATION_TYPE":"U","NORAD_CAT_ID":55451,"ELEMENT_SET_NO":999,"REV_AT_EPOCH":14854,"BSTAR":0.00019375073,"MEAN_MOTION_DOT":2.415e-5,"MEAN_MOTION_DDOT":0},{"OBJECT_NAME":"STARLINK-5683","OBJECT_ID":"2023-015D","EPOCH":"2025-10-13T01:34:50.570976","MEAN_MOTION":15.02535316,"ECCENTRICITY":8.093e-5,"INCLINATION":43.0026,"RA_OF_ASC_NODE":48.4709,"ARG_OF_PERICENTER":270.4506,"MEAN_ANOMALY":89.6243,"EPHEMERIS_TYPE":0,"CLASSIFICATION_TYPE":"U","NORAD_CAT_ID":55452,"ELEMENT_SET_NO":999,"REV_AT_EPOCH":14854,"BSTAR":6.4961082e-5,"MEAN_MOTION_DOT":6.74e-6,"MEAN_MOTION_DDOT":0},{"OBJECT_NAME":"STARLINK-5684","OBJECT_ID":"2023-015E","EPOCH":"2025-10-13T01:30:03.081888","MEAN_MOTION":15.02537351,"ECCENTRICITY":0.00012761,"INCLINATION":43.0059,"RA_OF_ASC_NODE":48.448,"ARG_OF_PERICENTER":271.9438,"MEAN_ANOMALY":88.1258,"EPHEMERIS_TYPE":0,"CLASSIFICATION_TYPE":"U","NORAD_CAT_ID":55453,"ELEMENT_SET_NO":999,"REV_AT_EPOCH":14854,"BSTAR":6.7039031e-5,"MEAN_MOTION_DOT":7.02e-6,"MEAN_MOTION_DDOT":0},{"OBJECT_NAME":"STARLINK-5636","OBJECT_ID":"2023-015F","EPOCH":"2025-10-12T15:46:05.206080","MEAN_MOTION":15.02537016,"ECCENTRICITY":0.00012451,"INCLINATION":43.0031,"RA_OF_ASC_NODE":50.5545,"ARG_OF_PERICENTER":274.9675,"MEAN_ANOMALY":85.1026,"EPHEMERIS_TYPE":0,"CLASSIFICATION_TYPE":"U","NORAD_CAT_ID":55454,"ELEMENT_SET_NO":999,"REV_AT_EPOCH":14848,"BSTAR":5.2832333e-5,"MEAN_MOTION_DOT":5.1e-6,"MEAN_MOTION_DDOT":0},{"OBJECT_NAME":"STARLINK-5680","OBJECT_ID":"2023-015G","EPOCH":"2025-10-13T01:39:38.172384","MEAN_MOTION":15.02541099,"ECCENTRICITY":0.00014403,"INCLINATION":43.0044,"RA_OF_ASC_NODE":48.4974,"ARG_OF_PERICENTER":270.2862,"MEAN_ANOMALY":89.7815,"EPHEMERIS_TYPE":0,"CLASSIFICATION_TYPE":"U","NORAD_CAT_ID":55455,"ELEMENT_SET_NO":999,"REV_AT_EPOCH":14854,"BSTAR":4.5466378e-5,"MEAN_MOTION_DOT":4.11e-6,"MEAN_MOTION_DDOT":0},{"OBJECT_NAME":"STARLINK-5058","OBJECT_ID":"2023-015H","EPOCH":"2025-10-12T17:23:25.430496","MEAN_MOTION":15.02540201,"ECCENTRICITY":0.00011366,"INCLINATION":43.0077,"RA_OF_ASC_NODE":50.2131,"ARG_OF_PERICENTER":271.4045,"MEAN_ANOMALY":88.6667,"EPHEMERIS_TYPE":0,"CLASSIFICATION_TYPE":"U","NORAD_CAT_ID":55456,"ELEMENT_SET_NO":999,"REV_AT_EPOCH":14849,"BSTAR":2.2004329e-5,"MEAN_MOTION_DOT":9.4e-7,"MEAN_MOTION_DDOT":0},{"OBJECT_NAME":"STARLINK-5682","OBJECT_ID":"2023-015J","EPOCH":"2025-10-13T01:25:15.015648","MEAN_MOTION":15.02539278,"ECCENTRICITY":0.00013405,"INCLINATION":43.0052,"RA_OF_ASC_NODE":48.4232,"ARG_OF_PERICENTER":273.0172,"MEAN_ANOMALY":87.0517,"EPHEMERIS_TYPE":0,"CLASSIFICATION_TYPE":"U","NORAD_CAT_ID":55457,"ELEMENT_SET_NO":999,"REV_AT_EPOCH":14854,"BSTAR":6.7800972e-5,"MEAN_MOTION_DOT":7.12e-6,"MEAN_MOTION_DDOT":0},{"OBJECT_NAME":"STARLINK-5020","OBJECT_ID":"2023-015K","EPOCH":"2025-10-13T01:06:04.631616","MEAN_MOTION":15.02536665,"ECCENTRICITY":0.00013886,"INCLINATION":43.0045,"RA_OF_ASC_NODE":48.32,"ARG_OF_PERICENTER":276.4788,"MEAN_ANOMALY":83.5896,"EPHEMERIS_TYPE":0,"CLASSIFICATION_TYPE":"U","NORAD_CAT_ID":55458,"ELEMENT_SET_NO":999,"REV_AT_EPOCH":14854,"BSTAR":0.00023843065,"MEAN_MOTION_DOT":3.019e-5,"MEAN_MOTION_DDOT":0},{"OBJECT_NAME":"STARLINK-5669","OBJECT_ID":"2023-015L","EPOCH":"2025-10-13T01:12:28.092096","MEAN_MOTION":15.0255302,"ECCENTRICITY":0.00012984,"INCLINATION":43.0047,"RA_OF_ASC_NODE":48.3547,"ARG_OF_PERICENTER":261.2061,"MEAN_ANOMALY":98.8635,"EPHEMERIS_TYPE":0,"CLASSIFICATION_TYPE":"U","NORAD_CAT_ID":55459,"ELEMENT_SET_NO":999,"REV_AT_EPOCH":14854,"BSTAR":0.00026401513,"MEAN_MOTION_DOT":3.366e-5,"MEAN_MOTION_DDOT":0},{"OBJECT_NAME":"STARLINK-5678","OBJECT_ID":"2023-015M","EPOCH":"2025-10-13T01:07:39.916992","MEAN_MOTION":15.02526525,"ECCENTRICITY":0.00011654,"INCLINATION":43.0049,"RA_OF_ASC_NODE":48.3302,"ARG_OF_PERICENTER":272.1441,"MEAN_ANOMALY":87.9268,"EPHEMERIS_TYPE":0,"CLASSIFICATION_TYPE":"U","NORAD_CAT_ID":55460,"ELEMENT_SET_NO":999,"REV_AT_EPOCH":14854,"BSTAR":0.00020979835,"MEAN_MOTION_DOT":2.631e-5,"MEAN_MOTION_DDOT":0},{"OBJECT_NAME":"STARLINK-5646","OBJECT_ID":"2023-015N","EPOCH":"2025-10-13T01:17:16.326816","MEAN_MOTION":15.02509098,"ECCENTRICITY":0.00010299,"INCLINATION":43.006,"RA_OF_ASC_NODE":48.3807,"ARG_OF_PERICENTER":273.1971,"MEAN_ANOMALY":86.8754,"EPHEMERIS_TYPE":0,"CLASSIFICATION_TYPE":"U","NORAD_CAT_ID":55461,"ELEMENT_SET_NO":999,"REV_AT_EPOCH":14854,"BSTAR":0.00055853582,"MEAN_MOTION_DOT":7.344e-5,"MEAN_MOTION_DDOT":0},{"OBJECT_NAME":"STARLINK-5673","OBJECT_ID":"2023-015P","EPOCH":"2025-10-13T00:51:42.749280","MEAN_MOTION":15.02524134,"ECCENTRICITY":0.00014751,"INCLINATION":43.0037,"RA_OF_ASC_NODE":48.2446,"ARG_OF_PERICENTER":268.3896,"MEAN_ANOMALY":91.6777,"EPHEMERIS_TYPE":0,"CLASSIFICATION_TYPE":"U","NORAD_CAT_ID":55462,"ELEMENT_SET_NO":999,"REV_AT_EPOCH":14854,"BSTAR":-3.43001e-6,"MEAN_MOTION_DOT":-2.5e-6,"MEAN_MOTION_DDOT":0},{"OBJECT_NAME":"STARLINK-5677","OBJECT_ID":"2023-015Q","EPOCH":"2025-10-13T00:59:40.898112","MEAN_MOTION":15.02535268,"ECCENTRICITY":0.00011148,"INCLINATION":43.003,"RA_OF_ASC_NODE":48.2867,"ARG_OF_PERICENTER":271.9981,"MEAN_ANOMALY":88.0734,"EPHEMERIS_TYPE":0,"CLASSIFICATION_TYPE":"U","NORAD_CAT_ID":55463,"ELEMENT_SET_NO":999,"REV_AT_EPOCH":14854,"BSTAR":5.6927488e-5,"MEAN_MOTION_DOT":5.65e-6,"MEAN_MOTION_DDOT":0},{"OBJECT_NAME":"STARLINK-5676","OBJECT_ID":"2023-015R","EPOCH":"2025-10-13T00:42:05.884128","MEAN_MOTION":15.02539196,"ECCENTRICITY":0.00013744,"INCLINATION":43.0052,"RA_OF_ASC_NODE":48.1953,"ARG_OF_PERICENTER":268.1483,"MEAN_ANOMALY":91.9202,"EPHEMERIS_TYPE":0,"CLASSIFICATION_TYPE":"U","NORAD_CAT_ID":55464,"ELEMENT_SET_NO":999,"REV_AT_EPOCH":14854,"BSTAR":8.2021197e-5,"MEAN_MOTION_DOT":9.05e-6,"MEAN_MOTION_DDOT":0},{"OBJECT_NAME":"STARLINK-5674","OBJECT_ID":"2023-015S","EPOCH":"2025-10-13T00:46:53.624640","MEAN_MOTION":15.02540258,"ECCENTRICITY":0.00012755,"INCLINATION":43.0046,"RA_OF_ASC_NODE":48.2209,"ARG_OF_PERICENTER":265.9894,"MEAN_ANOMALY":94.0802,"EPHEMERIS_TYPE":0,"CLASSIFICATION_TYPE":"U","NORAD_CAT_ID":55465,"ELEMENT_SET_NO":999,"REV_AT_EPOCH":14854,"BSTAR":8.6081177e-5,"MEAN_MOTION_DOT":9.59e-6,"MEAN_MOTION_DDOT":0}]
